[{"OBJECT_NAME":"AMAZONIA 1","OBJECT_ID":"2021-015A","EPOCH":"2026-03-09T17:05:01.705920","MEAN_MOTION":14.40836291,"ECCENTRICITY":0.00039353,"INCLINATION":98.4264,"RA_OF_ASC_NODE":142.7385,"ARG_OF_PERICENTER":123.8493,"MEAN_ANOMALY":236.3071,"EPHEMERIS_TYPE":0,"CLASSIFICATION_TYPE":"U","NORAD_CAT_ID":47699,"ELEMENT_SET_NO":999,"REV_AT_EPOCH":26432,"BSTAR":0.00010973552,"MEAN_MOTION_DOT":3.08e-6,"MEAN_MOTION_DDOT":0},{"OBJECT_NAME":"COSMOS 2251 DEB","OBJECT_ID":"1993-036ZG","EPOCH":"2026-03-09T18:56:06.056736","MEAN_MOTION":14.4653538,"ECCENTRICITY":0.00452872,"INCLINATION":74.0182,"RA_OF_ASC_NODE":340.5375,"ARG_OF_PERICENTER":106.9728,"MEAN_ANOMALY":314.0089,"EPHEMERIS_TYPE":0,"CLASSIFICATION_TYPE":"U","NORAD_CAT_ID":34738,"ELEMENT_SET_NO":999,"REV_AT_EPOCH":89117,"BSTAR":0.00034190693,"MEAN_MOTION_DOT":1.22e-5,"MEAN_MOTION_DDOT":0}]
